GLOBALSTAR M094         
1 39074U 13005C   25133.88990752 -.00000103  00000+0  54076-5 0  9995
2 39074  51.9962 286.5404 0000864 133.1070 226.9869 12.62270749568044
GLOBALSTAR M096         
1 39075U 13005D   25133.74481135 -.00000096  00000+0  45149-4 0  9992
2 39075  52.0091 335.4710 0000964 112.0245 248.0724 12.62271219566940
GLOBALSTAR M078         
1 39076U 13005E   25133.79734957 -.00000066  00000+0  21222-3 0  9993
2 39076  51.9887  59.8634 0001404  89.5736 270.5291 12.62262040565576
GLOBALSTAR M095         
1 39077U 13005F   25133.50704878 -.00000108  00000+0 -21466-4 0  9991
2 39077  51.9812  57.9614 0000898  98.7322 261.3647 12.62269512565395
GLOBALSTAR M087         
1 52888U 22064A   25133.61686047 -.00000070  00000+0  18832-3 0  9999
2 52888  51.9979 199.0476 0000451 136.2127 223.8775 12.62263049141006
